STARLINK-32318          
1 61864U 24202V   26068.49023547 -.00000521  00000+0 -94122-5 0  9993
2 61864  42.9949 239.4111 0000519 268.0856  91.9936 15.27572747 75304
FLOCK 4G-7              
1 62624U 25009R   26068.79996108  .00011422  00000+0  43168-3 0  9991
2 62624  97.3984 150.8270 0001396 336.9783  23.1393 15.27141471 63725
